{
  "type": "FeatureCollection",
  "features": [
    {
      "type": "Feature",
      "properties": {
        "OBJECT_NAME": "GSAT0206 (GALILEO 10)",
        "OBJECT_ID": "2015-045B",
        "EPOCH": "2025-11-28T20:17:33.194976",
        "MEAN_MOTION": 1.70472951,
        "ECCENTRICITY": 0.00035605,
        "INCLINATION": 55.0075,
        "RA_OF_ASC_NODE": 227.1375,
        "ARG_OF_PERICENTER": 32.1082,
        "MEAN_ANOMALY": 327.9865,
        "EPHEMERIS_TYPE": 0,
        "CLASSIFICATION_TYPE": "U",
        "NORAD_CAT_ID": 40890,
        "ELEMENT_SET_NO": 999,
        "REV_AT_EPOCH": 6362,
        "BSTAR": 0,
        "MEAN_MOTION_DOT": 2.6e-07,
        "MEAN_MOTION_DDOT": 0,
        "norad_id": 40890,
        "name": "GSAT0206 (GALILEO 10)",
        "group": "galileo",
        "longitude_deg": NaN,
        "latitude_deg": NaN,
        "alt_km": NaN,
        "orbit_class": "HEO",
        "timestamp": "2025-11-30T08:43:09.301545+00:00"
      },
      "geometry": {
        "type": "Point",
        "coordinates": [
          NaN,
          NaN
        ]
      }
    },
    {
      "type": "Feature",
      "properties": {
        "OBJECT_NAME": "GSAT0209 (GALILEO 12)",
        "OBJECT_ID": "2015-079A",
        "EPOCH": "2025-11-29T00:19:48.752544",
        "MEAN_MOTION": 1.70474337,
        "ECCENTRICITY": 0.00023288,
        "INCLINATION": 55.7045,
        "RA_OF_ASC_NODE": 106.7579,
        "ARG_OF_PERICENTER": 359.5232,
        "MEAN_ANOMALY": 0.4568,
        "EPHEMERIS_TYPE": 0,
        "CLASSIFICATION_TYPE": "U",
        "NORAD_CAT_ID": 41174,
        "ELEMENT_SET_NO": 999,
        "REV_AT_EPOCH": 6136,
        "BSTAR": 0,
        "MEAN_MOTION_DOT": 5.4e-07,
        "MEAN_MOTION_DDOT": 0,
        "norad_id": 41174,
        "name": "GSAT0209 (GALILEO 12)",
        "group": "galileo",
        "longitude_deg": NaN,
        "latitude_deg": NaN,
        "alt_km": NaN,
        "orbit_class": "HEO",
        "timestamp": "2025-11-30T08:43:09.301866+00:00"
      },
      "geometry": {
        "type": "Point",
        "coordinates": [
          NaN,
          NaN
        ]
      }
    },
    {
      "type": "Feature",
      "properties": {
        "OBJECT_NAME": "GSAT0208 (GALILEO 11)",
        "OBJECT_ID": "2015-079B",
        "EPOCH": "2025-11-29T05:36:49.658112",
        "MEAN_MOTION": 1.70474204,
        "ECCENTRICITY": 0.0001857,
        "INCLINATION": 55.703,
        "RA_OF_ASC_NODE": 106.749,
        "ARG_OF_PERICENTER": 12.2161,
        "MEAN_ANOMALY": 347.768,
        "EPHEMERIS_TYPE": 0,
        "CLASSIFICATION_TYPE": "U",
        "NORAD_CAT_ID": 41175,
        "ELEMENT_SET_NO": 999,
        "REV_AT_EPOCH": 6178,
        "BSTAR": 0,
        "MEAN_MOTION_DOT": 5.4e-07,
        "MEAN_MOTION_DDOT": 0,
        "norad_id": 41175,
        "name": "GSAT0208 (GALILEO 11)",
        "group": "galileo",
        "longitude_deg": NaN,
        "latitude_deg": NaN,
        "alt_km": NaN,
        "orbit_class": "HEO",
        "timestamp": "2025-11-30T08:43:09.301872+00:00"
      },
      "geometry": {
        "type": "Point",
        "coordinates": [
          NaN,
          NaN
        ]
      }
    },
    {
      "type": "Feature",
      "properties": {
        "OBJECT_NAME": "GSAT0211 (GALILEO 14)",
        "OBJECT_ID": "2016-030A",
        "EPOCH": "2025-11-28T18:30:37.119744",
        "MEAN_MOTION": 1.70472998,
        "ECCENTRICITY": 0.00037617,
        "INCLINATION": 55.1573,
        "RA_OF_ASC_NODE": 227.2083,
        "ARG_OF_PERICENTER": 3.3414,
        "MEAN_ANOMALY": 356.7341,
        "EPHEMERIS_TYPE": 0,
        "CLASSIFICATION_TYPE": "U",
        "NORAD_CAT_ID": 41549,
        "ELEMENT_SET_NO": 999,
        "REV_AT_EPOCH": 5925,
        "BSTAR": 0,
        "MEAN_MOTION_DOT": 2.6e-07,
        "MEAN_MOTION_DDOT": 0,
        "norad_id": 41549,
        "name": "GSAT0211 (GALILEO 14)",
        "group": "galileo",
        "longitude_deg": NaN,
        "latitude_deg": NaN,
        "alt_km": NaN,
        "orbit_class": "HEO",
        "timestamp": "2025-11-30T08:43:09.302055+00:00"
      },
      "geometry": {
        "type": "Point",
        "coordinates": [
          NaN,
          NaN
        ]
      }
    },
    {
      "type": "Feature",
      "properties": {
        "OBJECT_NAME": "GSAT0210 (GALILEO 13)",
        "OBJECT_ID": "2016-030B",
        "EPOCH": "2025-11-28T10:36:40.768128",
        "MEAN_MOTION": 1.70473446,
        "ECCENTRICITY": 0.00013131,
        "INCLINATION": 55.1568,
        "RA_OF_ASC_NODE": 227.2154,
        "ARG_OF_PERICENTER": 243.5981,
        "MEAN_ANOMALY": 116.4619,
        "EPHEMERIS_TYPE": 0,
        "CLASSIFICATION_TYPE": "U",
        "NORAD_CAT_ID": 41550,
        "ELEMENT_SET_NO": 999,
        "REV_AT_EPOCH": 5924,
        "BSTAR": 0,
        "MEAN_MOTION_DOT": 2.6e-07,
        "MEAN_MOTION_DDOT": 0,
        "norad_id": 41550,
        "name": "GSAT0210 (GALILEO 13)",
        "group": "galileo",
        "longitude_deg": NaN,
        "latitude_deg": NaN,
        "alt_km": NaN,
        "orbit_class": "HEO",
        "timestamp": "2025-11-30T08:43:09.302061+00:00"
      },
      "geometry": {
        "type": "Point",
        "coordinates": [
          NaN,
          NaN
        ]
      }
    },
    {
      "type": "Feature",
      "properties": {
        "OBJECT_NAME": "GSAT0207 (GALILEO 15)",
        "OBJECT_ID": "2016-069A",
        "EPOCH": "2025-11-27T13:08:09.496896",
        "MEAN_MOTION": 1.70474273,
        "ECCENTRICITY": 0.00020495,
        "INCLINATION": 55.3731,
        "RA_OF_ASC_NODE": 106.6711,
        "ARG_OF_PERICENTER": 327.0385,
        "MEAN_ANOMALY": 32.9292,
        "EPHEMERIS_TYPE": 0,
        "CLASSIFICATION_TYPE": "U",
        "NORAD_CAT_ID": 41859,
        "ELEMENT_SET_NO": 999,
        "REV_AT_EPOCH": 5596,
        "BSTAR": 0,
        "MEAN_MOTION_DOT": 5.3e-07,
        "MEAN_MOTION_DDOT": 0,
        "norad_id": 41859,
        "name": "GSAT0207 (GALILEO 15)",
        "group": "galileo",
        "longitude_deg": NaN,
        "latitude_deg": NaN,
        "alt_km": NaN,
        "orbit_class": "HEO",
        "timestamp": "2025-11-30T08:43:09.302415+00:00"
      },
      "geometry": {
        "type": "Point",
        "coordinates": [
          NaN,
          NaN
        ]
      }
    },
    {
      "type": "Feature",
      "properties": {
        "OBJECT_NAME": "GSAT0212 (GALILEO 16)",
        "OBJECT_ID": "2016-069B",
        "EPOCH": "2025-11-29T03:51:29.490336",
        "MEAN_MOTION": 1.70474484,
        "ECCENTRICITY": 0.0002283,
        "INCLINATION": 55.3717,
        "RA_OF_ASC_NODE": 106.6219,
        "ARG_OF_PERICENTER": 36.1467,
        "MEAN_ANOMALY": 323.8485,
        "EPHEMERIS_TYPE": 0,
        "CLASSIFICATION_TYPE": "U",
        "NORAD_CAT_ID": 41860,
        "ELEMENT_SET_NO": 999,
        "REV_AT_EPOCH": 5624,
        "BSTAR": 0,
        "MEAN_MOTION_DOT": 5.3e-07,
        "MEAN_MOTION_DDOT": 0,
        "norad_id": 41860,
        "name": "GSAT0212 (GALILEO 16)",
        "group": "galileo",
        "longitude_deg": NaN,
        "latitude_deg": NaN,
        "alt_km": NaN,
        "orbit_class": "HEO",
        "timestamp": "2025-11-30T08:43:09.302424+00:00"
      },
      "geometry": {
        "type": "Point",
        "coordinates": [
          NaN,
          NaN
        ]
      }
    },
    {
      "type": "Feature",
      "properties": {
        "OBJECT_NAME": "GSAT0213 (GALILEO 17)",
        "OBJECT_ID": "2016-069C",
        "EPOCH": "2025-11-28T08:31:27.530400",
        "MEAN_MOTION": 1.70474759,
        "ECCENTRICITY": 0.00019722,
        "INCLINATION": 55.3734,
        "RA_OF_ASC_NODE": 106.6518,
        "ARG_OF_PERICENTER": 283.8228,
        "MEAN_ANOMALY": 76.1363,
        "EPHEMERIS_TYPE": 0,
        "CLASSIFICATION_TYPE": "U",
        "NORAD_CAT_ID": 41861,
        "ELEMENT_SET_NO": 999,
        "REV_AT_EPOCH": 5609,
        "BSTAR": 0,
        "MEAN_MOTION_DOT": 5.4e-07,
        "MEAN_MOTION_DDOT": 0,
        "norad_id": 41861,
        "name": "GSAT0213 (GALILEO 17)",
        "group": "galileo",
        "longitude_deg": NaN,
        "latitude_deg": NaN,
        "alt_km": NaN,
        "orbit_class": "HEO",
        "timestamp": "2025-11-30T08:43:09.302431+00:00"
      },
      "geometry": {
        "type": "Point",
        "coordinates": [
          NaN,
          NaN
        ]
      }
    }
  ]
}