GSAT0206 (GALILEO 10)   
1 40890U 15045B   25332.84552309  .00000026  00000+0  00000+0 0  9993
2 40890  55.0075 227.1375 0003560  32.1082 327.9865  1.70472951 63625
GSAT0209 (GALILEO 12)   
1 41174U 15079A   25333.01375871  .00000054  00000+0  00000+0 0  9994
2 41174  55.7045 106.7579 0002328 359.5232   0.4568  1.70474337 61369
GSAT0208 (GALILEO 11)   
1 41175U 15079B   25333.23390808  .00000054  00000+0  00000+0 0  9996
2 41175  55.7030 106.7490 0001857  12.2161 347.7680  1.70474204 61787
GSAT0211 (GALILEO 14)   
1 41549U 16030A   25332.77126296  .00000026  00000+0  00000+0 0  9994
2 41549  55.1573 227.2083 0003761   3.3414 356.7341  1.70472998 59254
GSAT0210 (GALILEO 13)   
1 41550U 16030B   25332.44213852  .00000026  00000+0  00000+0 0  9995
2 41550  55.1568 227.2154 0001313 243.5981 116.4619  1.70473446 59244
GSAT0207 (GALILEO 15)   
1 41859U 16069A   25331.54733214  .00000053  00000+0  00000+0 0  9998
2 41859  55.3731 106.6711 0002049 327.0385  32.9292  1.70474273 55965
GSAT0212 (GALILEO 16)   
1 41860U 16069B   25333.16075799  .00000053  00000+0  00000+0 0  9997
2 41860  55.3717 106.6219 0002283  36.1467 323.8485  1.70474484 56245
GSAT0213 (GALILEO 17)   
1 41861U 16069C   25332.35517975  .00000054  00000+0  00000+0 0  9996
2 41861  55.3734 106.6518 0001972 283.8228  76.1363  1.70474759 56098
